NORAD_CAT_ID,OBJECT_NAME,OBJECT_TYPE,EPOCH,MEAN_MOTION,ECCENTRICITY,INCLINATION,RA_OF_ASC_NODE,ARG_OF_PERICENTER,MEAN_ANOMALY,BSTAR,MEAN_MOTION_DOT,MEAN_MOTION_DDOT,TLE_LINE0,TLE_LINE1,TLE_LINE2,SEMIMAJOR_AXIS,PERIOD,APOGEE,PERIGEE,DECAYED
52281.0,STARLINK-3779,PAYLOAD,2024-02-03 23:55:42,15.08842531,0.0001539,53.2185,301.9637,83.606,276.5107,-5.2747e-06,-3.72e-06,0.0,0 STARLINK-3779,1 52281U 22041W   24034.99702093 -.00000372  00000-0 -52747-5 0  9993,2 52281  53.2185 301.9637 0001539  83.6060 276.5107 15.08842531100145,6917.873,95.437,540.802,538.673,0.0
52281.0,STARLINK-3779,PAYLOAD,2024-02-04 22:11:06,15.08842931,0.0001584,53.2183,297.8006,85.1059,275.0114,3.3547e-05,2.46e-06,0.0,0 STARLINK-3779,1 52281U 22041W   24035.92437875  .00000246  00000-0  33547-4 0  9994,2 52281  53.2183 297.8006 0001584  85.1059 275.0114 15.08842931 99065,6917.871,95.437,540.832,538.641,0.0
52281.0,STARLINK-3779,PAYLOAD,2024-02-05 10:54:11,15.08843076,0.0001505,53.2181,295.4208,90.0957,270.0207,6.5324e-05,7.52e-06,0.0,0 STARLINK-3779,1 52281U 22041W   24036.45429642  .00000752  00000-0  65324-4 0  9996,2 52281  53.2181 295.4208 0001505  90.0957 270.0207 15.08843076100361,6917.871,95.437,540.777,538.695,0.0
52281.0,STARLINK-3779,PAYLOAD,2024-02-05 22:01:53,15.08842282,0.0001515,53.2177,293.3378,102.7855,257.3307,5.2567e-05,5.49e-06,0.0,0 STARLINK-3779,1 52281U 22041W   24036.91797628  .00000549  00000-0  52567-4 0  9998,2 52281  53.2177 293.3378 0001515 102.7855 257.3307 15.08842282 99218,6917.873,95.437,540.786,538.69,0.0
52281.0,STARLINK-3779,PAYLOAD,2024-02-05 23:37:16,15.08843542,0.0001542,53.218,293.0405,102.3822,257.7343,6.0769e-05,6.79e-06,0.0,0 STARLINK-3779,1 52281U 22041W   24036.98421519  .00000679  00000-0  60769-4 0  9995,2 52281  53.2180 293.0405 0001542 102.3822 257.7343 15.08843542 99225,6917.87,95.437,540.801,538.668,0.0
52281.0,STARLINK-3779,PAYLOAD,2024-02-06 20:17:17,15.08839081,0.0001552,53.2176,289.173,107.4278,252.6884,2.2401e-05,6.9e-07,0.0,0 STARLINK-3779,1 52281U 22041W   24037.84533834  .00000069  00000-0  22401-4 0  9999,2 52281  53.2176 289.1730 0001552 107.4278 252.6884 15.08839081100577,6917.883,95.438,540.822,538.675,0.0
52281.0,STARLINK-3779,PAYLOAD,2024-02-06 21:52:40,15.08838757,0.0001556,53.2179,288.8751,110.4456,249.6703,1.8926e-05,1.3e-07,0.0,0 STARLINK-3779,1 52281U 22041W   24037.91157860  .00000013  00000-0  18926-4 0  9994,2 52281  53.2179 288.8751 0001556 110.4456 249.6703 15.08838757 99364,6917.884,95.438,540.826,538.673,0.0
52281.0,STARLINK-3779,PAYLOAD,2024-02-07 09:00:22,15.08837803,0.0001391,53.2174,286.7917,104.454,255.6606,1.5068e-05,-4.8e-07,0.0,0 STARLINK-3779,1 52281U 22041W   24038.37525947 -.00000048  00000-0  15068-4 0  9993,2 52281  53.2174 286.7917 0001391 104.4540 255.6606 15.08837803 99432,6917.887,95.438,540.714,538.79,0.0
52281.0,STARLINK-3779,PAYLOAD,2024-02-07 20:08:04,15.08833485,0.0001464,53.2175,284.7105,111.5709,248.5439,-2.25e-05,-6.46e-06,0.0,0 STARLINK-3779,1 52281U 22041W   24038.83894453 -.00000646  00000-0 -22500-4 0  9999,2 52281  53.2175 284.7105 0001464 111.5709 248.5439 15.08833485100729,6917.9,95.438,540.778,538.753,0.0
52281.0,STARLINK-3779,PAYLOAD,2024-02-07 21:43:27,15.0883363,0.0001476,53.2176,284.4132,110.9444,249.1706,-2.576e-05,-6.98e-06,0.0,0 STARLINK-3779,1 52281U 22041W   24038.90518468 -.00000698  00000-0 -25760-4 0  9994,2 52281  53.2176 284.4132 0001476 110.9444 249.1706 15.08833630 99519,6917.9,95.438,540.786,538.744,0.0
52281.0,STARLINK-3779,PAYLOAD,2024-02-08 08:51:09,15.08841621,0.0001423,53.2183,282.333,107.6502,252.4646,1.4781e-06,-2.64e-06,0.0,0 STARLINK-3779,1 52281U 22041W   24039.36886028 -.00000264  00000-0  14781-5 0  9995,2 52281  53.2183 282.3330 0001423 107.6502 252.4646 15.08841621100808,6917.875,95.437,540.725,538.756,0.0
52281.0,STARLINK-3779,PAYLOAD,2024-02-08 19:58:52,15.08835149,0.0001255,53.2181,280.2529,103.782,256.3312,-2.5009e-05,-6.86e-06,0.0,0 STARLINK-3779,1 52281U 22041W   24039.83254727 -.00000686  00000-0 -25009-4 0  9995,2 52281  53.2181 280.2529 0001255 103.7820 256.3312 15.08835149100874,6917.895,95.438,540.628,538.892,0.0
52281.0,STARLINK-3779,PAYLOAD,2024-02-08 21:34:15,15.08835545,0.0001251,53.218,279.9555,103.854,256.2591,-2.2279e-05,-6.42e-06,0.0,0 STARLINK-3779,1 52281U 22041W   24039.89878706 -.00000642  00000-0 -22279-4 0  9998,2 52281  53.2180 279.9555 0001251 103.8540 256.2591 15.08835545 99665,6917.894,95.438,540.624,538.894,0.0
52281.0,STARLINK-3779,PAYLOAD,2024-02-08 23:09:38,15.08836512,0.0001313,53.2183,279.6582,108.6516,251.4619,-1.1107e-05,-4.65e-06,0.0,0 STARLINK-3779,1 52281U 22041W   24039.96502617 -.00000465  00000-0 -11107-4 0  9992,2 52281  53.2183 279.6582 0001313 108.6516 251.4619 15.08836512 99674,6917.891,95.438,540.664,538.848,0.0
52281.0,STARLINK-3779,PAYLOAD,2024-02-09 19:49:39,15.08818892,0.0001159,53.218,275.7927,101.9028,258.2094,0.00025669,3.797e-05,0.0,0 STARLINK-3779,1 52281U 22041W   24040.82615441  .00003797  00000-0  25669-3 0  9995,2 52281  53.2180 275.7927 0001159 101.9028 258.2094 15.08818892101029,6917.945,95.439,540.612,539.008,0.0
52281.0,STARLINK-3779,PAYLOAD,2024-02-10 00:35:48,15.08814926,0.0001335,53.2179,274.9001,91.9182,268.1963,0.00038916,5.907e-05,0.0,0 STARLINK-3779,1 52281U 22041W   24041.02487187  .00005907  00000-0  38916-3 0  9996,2 52281  53.2179 274.9001 0001335  91.9182 268.1963 15.08814926 99830,6917.957,95.439,540.746,538.898,0.0
52281.0,STARLINK-3779,PAYLOAD,2024-02-10 19:40:26,15.08840283,0.0001225,53.2174,271.3316,85.4278,274.6854,0.00011212,1.497e-05,0.0,0 STARLINK-3779,1 52281U 22041W   24041.81974619  .00001497  00000-0  11212-3 0  9994,2 52281  53.2174 271.3316 0001225  85.4278 274.6854 15.08840283101174,6917.88,95.438,540.592,538.897,0.0
52281.0,STARLINK-3779,PAYLOAD,2024-02-10 22:51:12,15.08844083,0.0001223,53.2173,270.7356,83.2374,276.8758,0.00011986,1.62e-05,0.0,0 STARLINK-3779,1 52281U 22041W   24041.95222370  .00001620  00000-0  11986-3 0  9995,2 52281  53.2173 270.7356 0001223  83.2374 276.8758 15.08844083 99974,6917.868,95.437,540.579,538.887,0.0
52281.0,STARLINK-3779,PAYLOAD,2024-02-11 00:26:35,15.08845802,0.0001221,53.2172,270.4369,84.8587,275.2544,0.00013355,1.839e-05,0.0,0 STARLINK-3779,1 52281U 22041W   24042.01846197  .00001839  00000-0  13355-3 0  9996,2 52281  53.2172 270.4369 0001221  84.8587 275.2544 15.08845802 99982,6917.863,95.437,540.572,538.883,0.0
52281.0,STARLINK-3779,PAYLOAD,2024-02-11 21:06:35,15.0884733,0.0001349,53.2174,266.5717,78.7985,281.3159,8.1575e-05,1.011e-05,0.0,0 STARLINK-3779,1 52281U 22041W   24042.87958093  .00001011  00000-0  81575-4 0  9991,2 52281  53.2174 266.5717 0001349  78.7985 281.3159 15.08847330100118,6917.858,95.437,540.656,538.79,0.0
52281.0,STARLINK-3779,PAYLOAD,2024-02-12 19:22:00,15.08842083,0.0001253,53.2174,262.4122,86.812,273.3015,-3.9799e-05,-9.21e-06,0.0,0 STARLINK-3779,1 52281U 22041W   24043.80694697 -.00000921  00000-0 -39799-4 0  9994,2 52281  53.2174 262.4122 0001253  86.8120 273.3015 15.08842083101470,6917.874,95.437,540.606,538.872,0.0
52281.0,STARLINK-3779,PAYLOAD,2024-02-12 20:57:23,15.08841558,0.0001308,53.2166,262.114,73.1305,286.983,-4.0492e-05,-9.32e-06,0.0,0 STARLINK-3779,1 52281U 22041W   24043.87318701 -.00000932  00000-0 -40492-4 0  9994,2 52281  53.2166 262.1140 0001308  73.1305 286.9830 15.08841558100260,6917.876,95.437,540.645,538.836,0.0
52281.0,STARLINK-3779,PAYLOAD,2024-02-13 00:08:09,15.08841943,0.0001348,53.2163,261.517,75.2435,284.8706,-1.6984e-05,-5.58e-06,0.0,0 STARLINK-3779,1 52281U 22041W   24044.00566550 -.00000558  00000-0 -16984-4 0  9990,2 52281  53.2163 261.5170 0001348  75.2435 284.8706 15.08841943100283,6917.874,95.437,540.672,538.807,0.0
52281.0,STARLINK-3779,PAYLOAD,2024-02-13 20:48:10,15.08826553,0.0001342,53.2164,257.65,100.2587,259.8556,0.00015075,2.111e-05,0.0,0 STARLINK-3779,1 52281U 22041W   24044.86678966  .00002111  00000-0  15075-3 0  9993,2 52281  53.2164 257.6500 0001342 100.2587 259.8556 15.08826553100418,6917.921,95.438,540.715,538.858,0.0
52281.0,STARLINK-3779,PAYLOAD,2024-02-14 14:17:24,15.08836777,0.0001389,53.2163,254.3785,94.366,265.7491,7.4791e-05,9.02e-06,0.0,0 STARLINK-3779,1 52281U 22041W   24045.59542765  .00000902  00000-0  74791-4 0  9998,2 52281  53.2163 254.3785 0001389  94.3660 265.7491 15.08836777100527,6917.89,95.438,540.716,538.794,0.0
52281.0,STARLINK-3779,PAYLOAD,2024-02-14 20:38:57,15.08842014,0.0001373,53.216,253.1916,93.3296,266.7853,0.00010222,1.339e-05,0.0,0 STARLINK-3779,1 52281U 22041W   24045.86038420  .00001339  00000-0  10222-3 0  9999,2 52281  53.2160 253.1916 0001373  93.3296 266.7853 15.08842014101787,6917.874,95.437,540.689,538.789,0.0
52281.0,STARLINK-3779,PAYLOAD,2024-02-15 14:08:12,15.08836333,0.0001707,53.2162,249.9216,82.9356,277.183,4.7746e-05,4.72e-06,0.0,0 STARLINK-3779,1 52281U 22041W   24046.58903308  .00000472  00000-0  47746-4 0  9994,2 52281  53.2162 249.9216 0001707  82.9356 277.1830 15.08836333100672,6917.892,95.438,540.937,538.576,0.0
52281.0,STARLINK-3779,PAYLOAD,2024-02-15 20:29:45,15.08833062,0.000144,53.2173,248.7338,93.1772,266.9385,2.2178e-05,6.5e-07,0.0,0 STARLINK-3779,1 52281U 22041W   24046.85399639  .00000065  00000-0  22178-4 0  9990,2 52281  53.2173 248.7338 0001440  93.1772 266.9385 15.08833062101933,6917.902,95.438,540.763,538.77,0.0
52281.0,STARLINK-3779,PAYLOAD,2024-02-16 06:02:03,15.08837589,0.0001428,53.2174,246.9494,93.2201,266.8954,4.2948e-05,3.96e-06,0.0,0 STARLINK-3779,1 52281U 22041W   24047.25143405  .00000396  00000-0  42948-4 0  9997,2 52281  53.2174 246.9494 0001428  93.2201 266.8954 15.08837589100771,6917.888,95.438,540.741,538.765,0.0
52281.0,STARLINK-3779,PAYLOAD,2024-02-16 18:45:08,15.08847048,0.0001366,53.2171,244.5698,94.1725,265.9423,9.0259e-05,1.149e-05,0.0,0 STARLINK-3779,1 52281U 22041W   24047.78134590  .00001149  00000-0  90259-4 0  9995,2 52281  53.2171 244.5698 0001366  94.1725 265.9423 15.08847048102077,6917.859,95.437,540.669,538.779,0.0
